{
    "type": "FeatureCollection",
    "features": [
      {
        "type": "Feature",
        "properties": {},
        "geometry": {
          "coordinates": [
            139.88670326824723,
            35.62764298489154
          ],
          "type": "Point"
        }
      },
      {
        "type": "Feature",
        "properties": {},
        "geometry": {
          "coordinates": [
            139.79192058137085,
            35.6333363044095
          ],
          "type": "Point"
        }
      },
      {
        "type": "Feature",
        "properties": {},
        "geometry": {
          "coordinates": [
            138.72830617015632,
            35.35569376172303
          ],
          "type": "Point"
        }
      },
      {
        "type": "Feature",
        "properties": {},
        "geometry": {
          "coordinates": [
            135.94033902815704,
            35.11935802399137
          ],
          "type": "Point"
        }
      },
      {
        "type": "Feature",
        "properties": {},
        "geometry": {
          "coordinates": [
            134.6489348327168,
            34.75324314988987
          ],
          "type": "Point"
        }
      },
      {
        "type": "Feature",
        "properties": {},
        "geometry": {
          "coordinates": [
            141.36161628613394,
            43.059743761697206
          ],
          "type": "Point"
        }
      },
      {
        "type": "Feature",
        "properties": {},
        "geometry": {
          "coordinates": [
            141.29516117107613,
            43.211331009069966
          ],
          "type": "Point"
        }
      },
      {
        "type": "Feature",
        "properties": {},
        "geometry": {
          "coordinates": [
            144.39155030483977,
            42.99024829394162
          ],
          "type": "Point"
        }
      },
      {
        "type": "Feature",
        "properties": {},
        "geometry": {
          "coordinates": [
            142.36292825496577,
            43.77412358793774
          ],
          "type": "Point"
        }
      }
    ]
  }